[{"OBJECT_NAME":"STARLINK-5990","OBJECT_ID":"2023-064A","EPOCH":"2026-03-09T05:13:27.483744","MEAN_MOTION":14.98564845,"ECCENTRICITY":0.0004516,"INCLINATION":70.0007,"RA_OF_ASC_NODE":145.7196,"ARG_OF_PERICENTER":261.0003,"MEAN_ANOMALY":99.0646,"EPHEMERIS_TYPE":0,"CLASSIFICATION_TYPE":"U","NORAD_CAT_ID":56448,"ELEMENT_SET_NO":999,"REV_AT_EPOCH":15517,"BSTAR":0.002277471,"MEAN_MOTION_DOT":0.00027357,"MEAN_MOTION_DDOT":0},{"OBJECT_NAME":"CZ-4B DEB","OBJECT_ID":"2013-057D","EPOCH":"2026-03-09T09:16:47.914752","MEAN_MOTION":14.5751129,"ECCENTRICITY":0.01795645,"INCLINATION":74.9688,"RA_OF_ASC_NODE":52.7396,"ARG_OF_PERICENTER":117.4056,"MEAN_ANOMALY":244.551,"EPHEMERIS_TYPE":0,"CLASSIFICATION_TYPE":"U","NORAD_CAT_ID":40531,"ELEMENT_SET_NO":999,"REV_AT_EPOCH":57727,"BSTAR":0.00073382472,"MEAN_MOTION_DOT":4.144e-5,"MEAN_MOTION_DDOT":0}]
